start=new Date('2022-12-14T00:00:00.000Z').valueOf();
sats=[{"BSTAR":"0.00006251100000","MEAN_ELEMENT_THEORY":"SGP4","SITE":"AFETR","NORAD_CAT_ID":"44723","GP_ID":"220275630","OBJECT_ID":"2019-074L","ARG_OF_PERICENTER":"64.0228","TIME_SYSTEM":"UTC","COUNTRY_CODE":"US","REV_AT_EPOCH":"17054","TLE_LINE1":"1 44723U 19074L   22347.34776438  .00000649  00000-0  62511-4 0  9999","PERIOD":"95.592","RA_OF_ASC_NODE":"94.3568","OBJECT_NAME":"STARLINK-1017","SEMIMAJOR_AXIS":"6925.365","ECCENTRICITY":"0.00019340","EPOCH":"2022-12-13T08:20:46.842432","DECAY_DATE":null,"MEAN_MOTION_DOT":"0.00000649","REF_FRAME":"TEME","APOAPSIS":"548.570","FILE":"3697190","TLE_LINE2":"2 44723  53.0566  94.3568 0001934  64.0228 296.0960 15.06394566170545","CENTER_NAME":"EARTH","RCS_SIZE":"LARGE","EPHEMERIS_TYPE":"0","INCLINATION":"53.0566","OBJECT_TYPE":"PAYLOAD","ELEMENT_SET_NO":"999","CLASSIFICATION_TYPE":"U","MEAN_ANOMALY":"296.0960","MEAN_MOTION_DDOT":"0.0000000000000","MEAN_MOTION":"15.06394566","PERIAPSIS":"545.891","LAUNCH_DATE":"2019-11-11"},{"EPOCH":"2022-12-13T13:49:51.558816","ECCENTRICITY":"0.00017530","SEMIMAJOR_AXIS":"6925.325","OBJECT_NAME":"STARLINK-1019","PERIOD":"95.592","RA_OF_ASC_NODE":"93.3370","TLE_LINE1":"1 44724U 19074M   22347.57629119  .00001970  00000-0  15109-3 0  9996","COUNTRY_CODE":"US","REV_AT_EPOCH":"17057","OBJECT_ID":"2019-074M","TIME_SYSTEM":"UTC","ARG_OF_PERICENTER":"64.3808","NORAD_CAT_ID":"44724","GP_ID":"220273893","SITE":"AFETR","MEAN_ELEMENT_THEORY":"SGP4","BSTAR":"0.00015109000000","LAUNCH_DATE":"2019-11-11","PERIAPSIS":"545.976","MEAN_MOTION_DDOT":"0.0000000000000","MEAN_MOTION":"15.06407728","MEAN_ANOMALY":"295.7362","CLASSIFICATION_TYPE":"U","ELEMENT_SET_NO":"999","OBJECT_TYPE":"PAYLOAD","INCLINATION":"53.0532","RCS_SIZE":"LARGE","CENTER_NAME":"EARTH","EPHEMERIS_TYPE":"0","TLE_LINE2":"2 44724  53.0532  93.3370 0001753  64.3808 295.7362 15.06407728170575","FILE":"3697190","APOAPSIS":"548.404","DECAY_DATE":null,"REF_FRAME":"TEME","MEAN_MOTION_DOT":"0.00001970"},{"SEMIMAJOR_AXIS":"6925.335","OBJECT_NAME":"STARLINK-1020","EPOCH":"2022-12-13T07:35:39.841440","ECCENTRICITY":"0.00015740","RA_OF_ASC_NODE":"114.5096","PERIOD":"95.592","TLE_LINE1":"1 44725U 19074N   22347.31643335  .00001672  00000-0  13113-3 0  9997","NORAD_CAT_ID":"44725","GP_ID":"220274143","SITE":"AFETR","COUNTRY_CODE":"US","REV_AT_EPOCH":"17025","OBJECT_ID":"2019-074N","TIME_SYSTEM":"UTC","ARG_OF_PERICENTER":"72.1677","MEAN_ELEMENT_THEORY":"SGP4","BSTAR":"0.00013113000000","LAUNCH_DATE":"2019-11-11","MEAN_ANOMALY":"287.9483","CLASSIFICATION_TYPE":"U","ELEMENT_SET_NO":"999","OBJECT_TYPE":"PAYLOAD","PERIAPSIS":"546.110","MEAN_MOTION_DDOT":"0.0000000000000","MEAN_MOTION":"15.06404440","TLE_LINE2":"2 44725  53.0560 114.5096 0001574  72.1677 287.9483 15.06404440170250","INCLINATION":"53.0560","RCS_SIZE":"LARGE","CENTER_NAME":"EARTH","EPHEMERIS_TYPE":"0","DECAY_DATE":null,"MEAN_MOTION_DOT":"0.00001672","REF_FRAME":"TEME","FILE":"3697190","APOAPSIS":"548.290"},{"ELEMENT_SET_NO":"999","OBJECT_TYPE":"PAYLOAD","CLASSIFICATION_TYPE":"U","MEAN_ANOMALY":"311.3121","MEAN_MOTION_DDOT":"0.0000000000000","MEAN_MOTION":"15.06395670","PERIAPSIS":"546.168","LAUNCH_DATE":"2019-11-11","MEAN_MOTION_DOT":"0.00000213","REF_FRAME":"TEME","DECAY_DATE":null,"APOAPSIS":"548.286","FILE":"3697190","TLE_LINE2":"2 44726  53.0546  93.3403 0001529  48.8000 311.3121 15.06395670170571","EPHEMERIS_TYPE":"0","RCS_SIZE":"LARGE","CENTER_NAME":"EARTH","INCLINATION":"53.0546","TLE_LINE1":"1 44726U 19074P   22347.57260937  .00000213  00000-0  33222-4 0  9993","PERIOD":"95.592","RA_OF_ASC_NODE":"93.3403","OBJECT_NAME":"STARLINK-1021","SEMIMAJOR_AXIS":"6925.362","ECCENTRICITY":"0.00015290","EPOCH":"2022-12-13T13:44:33.449568","BSTAR":"0.00003322200000","MEAN_ELEMENT_THEORY":"SGP4","SITE":"AFETR","NORAD_CAT_ID":"44726","GP_ID":"220274893","ARG_OF_PERICENTER":"48.8000","TIME_SYSTEM":"UTC","OBJECT_ID":"2019-074P","REV_AT_EPOCH":"17057","COUNTRY_CODE":"US"},{"NORAD_CAT_ID":"44727","GP_ID":"220275131","SITE":"AFETR","COUNTRY_CODE":"US","REV_AT_EPOCH":"17002","OBJECT_ID":"2019-074Q","ARG_OF_PERICENTER":"68.0832","TIME_SYSTEM":"UTC","MEAN_ELEMENT_THEORY":"SGP4","BSTAR":"0.00000563150000","SEMIMAJOR_AXIS":"6925.349","OBJECT_NAME":"STARLINK-1022","EPOCH":"2022-12-13T13:00:44.124768","ECCENTRICITY":"0.00015010","RA_OF_ASC_NODE":"133.4937","PERIOD":"95.592","TLE_LINE1":"1 44727U 19074Q   22347.54217737 -.00000198  00000-0  56315-5 0  9993","TLE_LINE2":"2 44727  53.0536 133.4937 0001501  68.0832 292.0316 15.06399996170022","INCLINATION":"53.0536","CENTER_NAME":"EARTH","RCS_SIZE":"LARGE","EPHEMERIS_TYPE":"0","DECAY_DATE":null,"MEAN_MOTION_DOT":"-0.00000198","REF_FRAME":"TEME","FILE":"3697190","APOAPSIS":"548.253","LAUNCH_DATE":"2019-11-11","CLASSIFICATION_TYPE":"U","MEAN_ANOMALY":"292.0316","ELEMENT_SET_NO":"999","OBJECT_TYPE":"PAYLOAD","PERIAPSIS":"546.174","MEAN_MOTION":"15.06399996","MEAN_MOTION_DDOT":"0.0000000000000"},{"PERIAPSIS":"501.508","MEAN_MOTION":"15.21154858","MEAN_MOTION_DDOT":"0.0000000000000","MEAN_ANOMALY":"140.7376","CLASSIFICATION_TYPE":"U","OBJECT_TYPE":"PAYLOAD","ELEMENT_SET_NO":"999","LAUNCH_DATE":"2019-11-11","FILE":"3697424","APOAPSIS":"503.208","DECAY_DATE":null,"MEAN_MOTION_DOT":"0.00032561","REF_FRAME":"TEME","INCLINATION":"53.0045","RCS_SIZE":"LARGE","CENTER_NAME":"EARTH","EPHEMERIS_TYPE":"0","TLE_LINE2":"2 44729  53.0045  88.2292 0001235 219.3529 140.7376 15.21154858170789","PERIOD":"94.665","RA_OF_ASC_NODE":"88.2292","TLE_LINE1":"1 44729U 19074S   22347.69581988  .00032561  00000-0  14514-2 0  9993","EPOCH":"2022-12-13T16:41:58.837632","ECCENTRICITY":"0.00012350","SEMIMAJOR_AXIS":"6880.493","OBJECT_NAME":"STARLINK-1024","MEAN_ELEMENT_THEORY":"SGP4","BSTAR":"0.00145140000000","COUNTRY_CODE":"US","REV_AT_EPOCH":"17078","OBJECT_ID":"2019-074S","TIME_SYSTEM":"UTC","ARG_OF_PERICENTER":"219.3529","GP_ID":"220284828","NORAD_CAT_ID":"44729","SITE":"AFETR"},{"SEMIMAJOR_AXIS":"6925.325","OBJECT_NAME":"STARLINK-1026","EPOCH":"2022-12-13T17:11:33.288000","ECCENTRICITY":"0.00019200","RA_OF_ASC_NODE":"92.7120","PERIOD":"95.592","TLE_LINE1":"1 44731U 19074U   22347.71635750  .00000621  00000-0  60580-4 0  9994","GP_ID":"220284834","NORAD_CAT_ID":"44731","SITE":"AFETR","COUNTRY_CODE":"US","REV_AT_EPOCH":"17076","OBJECT_ID":"2019-074U","TIME_SYSTEM":"UTC","ARG_OF_PERICENTER":"46.1407","MEAN_ELEMENT_THEORY":"SGP4","BSTAR":"0.00006058000000","LAUNCH_DATE":"2019-11-11","CLASSIFICATION_TYPE":"U","MEAN_ANOMALY":"313.9740","ELEMENT_SET_NO":"999","OBJECT_TYPE":"PAYLOAD","PERIAPSIS":"545.860","MEAN_MOTION_DDOT":"0.0000000000000","MEAN_MOTION":"15.06407672","TLE_LINE2":"2 44731  53.0540  92.7120 0001920  46.1407 313.9740 15.06407672170769","INCLINATION":"53.0540","CENTER_NAME":"EARTH","RCS_SIZE":"LARGE","EPHEMERIS_TYPE":"0","DECAY_DATE":null,"MEAN_MOTION_DOT":"0.00000621","REF_FRAME":"TEME","FILE":"3697424","APOAPSIS":"548.520"},{"OBJECT_NAME":"STARLINK-1027","SEMIMAJOR_AXIS":"6925.356","ECCENTRICITY":"0.00016950","EPOCH":"2022-12-13T08:55:16.500000","TLE_LINE1":"1 44732U 19074V   22347.37171875 -.00000181  00000-0  67297-5 0  9995","PERIOD":"95.592","RA_OF_ASC_NODE":"114.2564","SITE":"AFETR","NORAD_CAT_ID":"44732","GP_ID":"220275393","OBJECT_ID":"2019-074V","TIME_SYSTEM":"UTC","ARG_OF_PERICENTER":"70.4483","COUNTRY_CODE":"US","REV_AT_EPOCH":"17026","BSTAR":"0.00000672970000","MEAN_ELEMENT_THEORY":"SGP4","LAUNCH_DATE":"2019-11-11","ELEMENT_SET_NO":"999","OBJECT_TYPE":"PAYLOAD","MEAN_ANOMALY":"289.6689","CLASSIFICATION_TYPE":"U","MEAN_MOTION":"15.06397590","MEAN_MOTION_DDOT":"0.0000000000000","PERIAPSIS":"546.047","TLE_LINE2":"2 44732  53.0547 114.2564 0001695  70.4483 289.6689 15.06397590170265","CENTER_NAME":"EARTH","RCS_SIZE":"LARGE","EPHEMERIS_TYPE":"0","INCLINATION":"53.0547","DECAY_DATE":null,"MEAN_MOTION_DOT":"-0.00000181","REF_FRAME":"TEME","APOAPSIS":"548.395","FILE":"3697190"},{"MEAN_ELEMENT_THEORY":"SGP4","BSTAR":"0.00110350000000","COUNTRY_CODE":"US","REV_AT_EPOCH":"17076","OBJECT_ID":"2019-074W","ARG_OF_PERICENTER":"71.7450","TIME_SYSTEM":"UTC","NORAD_CAT_ID":"44733","GP_ID":"220284831","SITE":"AFETR","RA_OF_ASC_NODE":"92.7612","PERIOD":"95.591","TLE_LINE1":"1 44733U 19074W   22347.70161686  .00016203  00000-0  11035-2 0  9999","EPOCH":"2022-12-13T16:50:19.696704","ECCENTRICITY":"0.00015150","SEMIMAJOR_AXIS":"6925.279","OBJECT_NAME":"STARLINK-1028","FILE":"3697424","APOAPSIS":"548.194","DECAY_DATE":null,"REF_FRAME":"TEME","MEAN_MOTION_DOT":"0.00016203","INCLINATION":"53.0539","RCS_SIZE":"LARGE","CENTER_NAME":"EARTH","EPHEMERIS_TYPE":"0","TLE_LINE2":"2 44733  53.0539  92.7612 0001515  71.7450 288.3704 15.06422563170768","PERIAPSIS":"546.095","MEAN_MOTION":"15.06422563","MEAN_MOTION_DDOT":"0.0000000000000","MEAN_ANOMALY":"288.3704","CLASSIFICATION_TYPE":"U","ELEMENT_SET_NO":"999","OBJECT_TYPE":"PAYLOAD","LAUNCH_DATE":"2019-11-11"},{"LAUNCH_DATE":"2019-11-11","PERIAPSIS":"545.858","MEAN_MOTION":"15.06417211","MEAN_MOTION_DDOT":"0.0000000000000","MEAN_ANOMALY":"305.2148","CLASSIFICATION_TYPE":"U","ELEMENT_SET_NO":"999","OBJECT_TYPE":"PAYLOAD","INCLINATION":"53.0553","EPHEMERIS_TYPE":"0","CENTER_NAME":"EARTH","RCS_SIZE":"LARGE","TLE_LINE2":"2 44734  53.0553  14.1959 0001881  54.9017 305.2148 15.06417211171648","FILE":"3697190","APOAPSIS":"548.463","MEAN_MOTION_DOT":"0.00002909","REF_FRAME":"TEME","DECAY_DATE":null,"EPOCH":"2022-12-13T09:13:50.564064","ECCENTRICITY":"0.00018810","SEMIMAJOR_AXIS":"6925.296","OBJECT_NAME":"STARLINK-1029","RA_OF_ASC_NODE":"14.1959","PERIOD":"95.591","TLE_LINE1":"1 44734U 19074X   22347.38461301  .00002909  00000-0  21402-3 0  9999","REV_AT_EPOCH":"17164","COUNTRY_CODE":"US","ARG_OF_PERICENTER":"54.9017","TIME_SYSTEM":"UTC","OBJECT_ID":"2019-074X","NORAD_CAT_ID":"44734","GP_ID":"220273894","SITE":"AFETR","MEAN_ELEMENT_THEORY":"SGP4","BSTAR":"0.00021402000000"}];
